[Satellite]
VERSION=1.1
NAME=Aalto 1
NICKNAME=Aalto 1
TLE1=1 42775U 17036L   22342.30927789  .00011372  00000+0  41369-3 0  9999
TLE2=2 42775  97.1776  13.6394 0013527  71.9272 288.3440 15.28309357303307
STATUS=0
